#dP2025  1 19  0  0  0.00000000       3 d+D   IGS20 FIT AIUB
## 2350      0.00000000   300.00000000 60694 0.0000000000000
+  122   G01G02G03G04G05G06G07G08G09G10G11G12G13G14G15G16G17
+        G18G19G20G21G22G23G24G25G26G27G28G29G30G31G32R01R02
+        R03R04R05R07R08R09R11R12R14R15R16R17R18R19R20R21R22
+        R24R26E02E03E04E05E06E07E08E09E10E11E12E13E14E15E16
+        E18E19E21E23E24E25E26E27E29E30E31E33E34E36C06C07C08
+        C09C10C11C12C13C14C16C19C20C21C22C23C24C25C26C27C28
+        C29C30C32C33C34C35C36C37C38C39C40C41C42C43C44C45C48
+        J02J03J04  0  0  0  0  0  0  0  0  0  0  0  0  0  0
++         5  5  5  5  5  5  5  5  5  5  5  6  5  5  5  6  5
++         5  5  5  5  6  5  5  5  5  5  5  5  5  5  5  5  5
++         5  5  5  5  5  5  5  5  5  5  5  5  5  5  5  5  5
++         5  5  5  5  5  5  5  5  5  5  5  5  5  5  5  5  5
++         5  5  5  5  5  5  5  5  5  5  5  5  5  5  5  5  5
++         5  5  5  8  5  5  5  5  5  5  5  5  5  5  5  5  5
++         5  5  5  5  5  5  5  5  5  5  5  5  5  5  5  5  5
++         5  5  5  0  0  0  0  0  0  0  0  0  0  0  0  0  0
%c M  cc GPS ccc cccc cccc cccc cccc ccccc ccccc ccccc ccccc
%c cc cc ccc ccc cccc cccc cccc cccc ccccc ccccc ccccc ccccc
%f  1.2500000  1.025000000  0.00000000000  0.000000000000000
%f  0.0000000  0.000000000  0.00000000000  0.000000000000000
%i    0    0    0    0      0      0      0      0         0
%i    0    0    0    0      0      0      0      0         0
/* Center for Orbit Determination in Europe (CODE)                              
/* MGEX orbits and clocks for year-day 2025-0190                                
/* Middle day of a 3-day long-arc multi-GNSS solution                           
/* Systems considered: GPS/GLONASS/Galileo/BeiDou/QZSS                          
/* Product reference - DOI 10.48350/197028                                      
/* PCV:IGS20      OL/AL:FES2014b NONE     YN ORB:CoN CLK:CoN                    
*  2025  1 19  0  0  0.00000000
PG01  19419.818181  11503.130120  14013.621854     59.359710
PG02  21522.147841  11277.983604  11647.625226   -264.519173
PG03  15004.420847   1146.032740  21707.350257    648.640909
PG04  26050.440597   1051.350140   5503.438747    514.067737
PG05  -8514.390587 -15982.738630 -19580.892585   -199.424563
PG06  -1527.887141 -20440.273386  16893.024158   -128.097367
PG07  16002.470200  -3316.274999 -20481.554336    -13.419220
PG08  20709.837490   7389.690316 -15350.985908    463.657786
PG09  25510.054881  -6742.405558  -3445.297507    534.078122
PG10 -10055.057909  24380.649590   -191.657229   -282.602637
PG11 -10961.318269 -23304.244181   6658.717374   -751.281497
PG12 -14321.453171  -4953.405630  21521.685749   -565.254510
PG13 -12500.824047 -13351.174924 -19579.951576    693.907006
PG14  12833.618835 -22752.052296  -3980.410440    582.565959
PG15 -21492.036748  -5125.903283 -15364.422323    253.261217
PG16   3096.380657  20251.140779 -17011.584488    -74.467548
PG17  16197.966215 -13119.427216  16986.413706    467.862481
PG18 -14148.554617   5744.767785 -21722.091380   -657.342506
PG19   5277.699055 -14870.067675  21158.264208    587.834019
PG20  -2179.773931 -24542.734002  -9995.471671    366.967344
PG21  20921.309185  16585.515133   5371.981141    101.319973
PG22   9076.575257 -24791.741326   4548.183806    -92.992297
PG23 -15791.451041  16145.779792 -13742.628934    406.574371
PG24 -21450.797349 -13301.060794   8416.805610   -462.449646
PG25 -17046.477208   9359.312745  17610.057646    496.527420
PG26  -2212.829182  25356.180209  -7036.507412    -53.888959
PG27   9929.250321  13428.678667 -21053.630121    -32.862111
PG28    294.943375  19715.759875  17782.089507   -538.828747
PG29 -26029.280237   4271.094094  -3688.596951   -545.872173
PG30   7308.906607 -15043.508960 -20426.829900   -236.075834
PG31   7543.106138  22772.252830  10746.461358   -217.562734
PG32 -10665.903671  15115.356588  19215.246238   -539.016997
PR01  20267.205410 -14561.813914  -5250.030872    111.725702
PR02   8233.361487 -14423.722226 -19339.301539    -38.335486
PR03  -9636.684796  -6766.694300 -22569.266376    115.176363
PR04 -21302.585702   4227.652948 -13331.195597    273.134484
PR05 -21786.655051  12891.511527   3032.826960    143.966314
PR07  10024.948710   6562.679989  22569.663747     99.140771
PR08  21423.395857  -4509.212382  13188.447380     -6.365266
PR09   -938.281802  25439.566928   2229.497090    232.902481
PR11  10623.784657   5378.421322 -22555.295428     -1.805436
PR12   8989.456514 -15762.146126 -17918.333607     49.771336
PR14  -6635.065779 -20091.995672  14236.118618     27.611812
PR15 -10915.532767  -3386.191926  22814.697552     72.050513
PR16  -8881.472695  15664.114056  18084.678174     32.563303
PR17 -18730.892709 -15707.061237   7366.388049    158.723378
PR18 -21949.756459  -9264.726113  -9020.552135    182.610127
PR19 -15656.302545    161.543805 -20132.510394   -306.023484
PR20   3277.342951  13818.139950 -21187.293134   -124.725208
PR21  17852.941420  16044.616368  -8593.917168   -169.343093
PR22  21696.266611   8778.895363  10189.690844    -56.628403
PR24  -4150.905364 -14185.305300  20814.313519    -88.754935
PR26  20538.019859  -3349.620782  14761.722316   -131.661384
PE02 -19403.404110  18351.183397  12728.972944    191.066672
PE03 -25613.061149   9422.130039  11469.530725   -167.447224
PE04   7143.425196 -16669.085513 -23388.010398   -135.842737
PE05 -28601.377858  -3201.872918  -6920.887528   4820.204220
PE06  -4393.346438 -16722.737036 -24037.564874    -72.063108
PE07  14600.259922  14143.555902  21516.537764   -164.337078
PE08  -7966.483365  16440.467883  23289.896904   -402.751253
PE09 -14543.263629 -14046.790900 -21622.744257   -743.210268
PE10  -9151.107118 -26202.794427  10291.333020   -684.134951
PE11 -16072.807745 -24845.241861     -8.377842   -410.870537
PE12  -1702.475194 -23677.825496  17672.149808  -1392.655170
PE13  15794.594308  25036.109796   -545.781937    -29.307288
PE14 -26927.245578  -7709.572947  11784.521476    606.877425
PE15   1148.944234  23298.341279 -18215.808675   -151.890814
PE16 -12842.778344 -11473.813352  24065.915975    -15.945711
PE18  15726.609762  12993.535284 -16489.014117   1013.905490
PE19  26590.273866  -8247.335308 -10052.887141   1254.460390
PE21  17887.259387    978.368435 -23573.733394   -641.020378
PE23  19229.603082 -18644.033597 -12614.410764      7.871760
PE24  -5738.783820 -20367.164825  20685.112285  -1220.014390
PE25 -17697.994627  -1499.568309  23673.488122     13.406839
PE26  21008.540976  11626.519633  17326.646067   -150.076061
PE27   5785.531477  20309.435976 -20742.829525   -559.858995
PE29  28708.950054   3071.416916   6549.142767    -63.233633
PE30  -9499.340931  27404.502314  -5883.499648  -1150.540740
PE31   9585.848185 -27423.042642   5703.325404    -51.094749
PE33  14192.210845  -7487.594729  24884.859935     16.451814
PE34 -13931.388465   7907.141309 -24886.054503   -158.466006
PE36 -20911.608330 -12152.836961 -17044.274612   -340.997888
PC06  -1199.585099  30633.459214  29171.936221    682.705457
PC07 -17092.505712  29629.418149 -24674.076054    187.251357
PC08 -11258.977017  40490.186512   1276.039304    156.151054
PC09   5655.209333  34816.709890  24096.743182   -899.483410
PC10  -9486.806435  29927.759255 -27997.593518   -400.702752
PC11  24034.796561     70.496571  14256.647448    343.540868
PC12  24532.186524  12844.042191  -3457.741796 999999.999999
PC13  -7523.414915  41027.625398   5213.794220     64.574022
PC14  23853.338561 -11119.059083   9205.520801   -674.590025
PC16  -1791.648449  29895.438176  30155.507388    -70.368982
PC19 -21902.633575  17315.440405    -97.828942   -963.094584
PC20 -22688.359265   4729.931261 -15556.903387   -872.135523
PC21   9599.577068  12204.934665  23200.908453   -904.710677
PC22  -8570.445222  20846.510866  16466.379068    235.127302
PC23   1173.865763 -26922.154322  -7275.204713   -957.514332
PC24  16682.440846   6825.613427 -21323.181369    688.050834
PC25  12281.181309 -14691.029482 -20325.627964    620.848850
PC26  11571.923279  23274.196301 -10135.600755   -407.682214
PC27 -18922.636056 -16607.931439  12007.032472    425.348348
PC28  -3077.170195 -17536.521817  21494.637823    332.996578
PC29 -18845.672059   7731.527200 -19074.744224    390.861589
PC30 -26848.679048  -6489.949641  -3889.511470     83.204047
PC32  -9628.907806 -12179.152096 -23172.656312   -885.989657
PC33  21818.283184 -17382.746893    231.230364   -948.285145
PC34  26852.429718   5294.479128   5497.809803    610.371485
PC35   2794.176206  17351.792784 -21698.111078    149.803673
PC36 -12469.545992  14695.035372  20187.792717    253.854793
PC37 -10791.623471 -23854.851351   9695.976322   -905.201471
PC38 -15382.964480  38207.701537  -8598.926998    203.637969
PC39  -7591.163159  24985.715031  33206.888845    -10.809570
PC40 -23462.769458  23363.610477 -26273.797614   -115.546039
PC41   9417.955690 -21030.789167 -15671.690671   -882.518485
PC42  21965.327828  -2972.643063  16976.712488   -571.053094
PC43  19515.850506  -7279.302009  18573.393013     98.749235
PC44  19452.053831  15975.836463 -12096.652631    715.062753
PC45  -1654.438674  26719.460326   7817.694097   -213.261787
PC48 -23904.499577  10918.889841  -9372.093213    837.999113
PJ02 -34930.692935  23450.634757   8604.443428     -0.645017
PJ03 -21439.452987  20628.513800 -25217.692760     -0.244634
PJ04 -26522.678307  32668.482475  10450.545955     21.187529
*  2025  1 19  0  5  0.00000000
PG01  19656.872914  11970.102153  13272.334875     59.368568
PG02  21759.834925  11608.067196  10831.163534   -264.516306
PG03  14704.730634   1930.772230  21858.485930    648.643077
PG04  25835.050332   1148.941044   6421.119634    514.069474
PG05  -8251.356707 -16659.842192 -19117.664502   -199.425215
PG06  -1099.953100 -19948.634121  17509.106510   -128.105325
PG07  16490.667889  -2669.207065 -20207.576112    -13.419258
PG08  20145.759477   7555.766381 -15998.962225    463.660062
PG09  25632.560254  -6681.258632  -2502.912332    534.082560
PG10 -10105.506897  24323.490385  -1167.824601   -282.607412
PG11 -10743.237940 -23130.721790   7561.631909   -751.281118
PG12 -13967.045075  -5716.869682  21566.018566   -565.255338
PG13 -11765.588497 -13384.574326 -20006.149895    693.907312
PG14  12864.614783 -22552.474115  -4905.769356    582.568067
PG15 -20969.785556  -5363.625775 -16009.382403    253.262537
PG16   2767.461705  20782.027670 -16390.717426    -74.464684
PG17  16809.168884 -13131.035751  16363.014629    467.856849
PG18 -14645.206634   5086.356639 -21563.311308   -657.342062
PG19   6091.430209 -14883.106621  20917.792247    587.835325
PG20  -2034.430737 -24888.876554  -9145.255068    366.967072
PG21  20999.977977  16742.920499   4464.776298    101.320371
PG22   9206.636656 -24883.593610   3619.302354    -92.992717
PG23 -15659.134900  15617.738707 -14488.436240    406.576602
PG24 -21608.332737 -13596.708944   7557.432974   -462.448384
PG25 -16859.880091   8674.893952  18129.967719    496.527233
PG26  -2395.129131  25561.223389  -6144.132129    -53.893632
PG27   9159.143344  13570.692153 -21301.013405    -32.861938
PG28   -187.914139  19222.924483  18314.857368   -538.831584
PG29 -26154.913259   4206.956905  -2743.961810   -545.871293
PG30   7835.329098 -14443.114492 -20669.927928   -236.073293
PG31   7205.335614  22476.031560  11563.316992   -217.562433
PG32 -11373.577427  15188.436508  18734.093658   -539.014851
PR01  20408.825585 -14704.191115  -4200.217791    111.726650
PR02   8908.430938 -14826.066706 -18729.730270    -38.335219
PR03  -8812.522776  -7210.853953 -22768.997253    115.177168
PR04 -20778.739815   4002.442497 -14197.721453    273.135014
PR05 -21847.707213  12994.099925   1961.041690    143.966678
PR07   9205.924185   6999.606737  22785.206151     99.140903
PR08  20913.482416  -4282.827823  14056.791493     -6.365291
PR09   -908.020126  25326.728443   3282.005072    232.903074
PR11  10627.594372   6300.446991 -22314.041687     -1.806154
PR12   8952.479526 -15012.300471 -18567.988911     49.771489
PR14  -6663.920249 -20659.242431  13384.608096     27.611868
PR15 -10909.076082  -4319.142746  22659.483463     72.050228
PR16  -8841.997821  14908.647850  18730.129960     32.563563
PR17 -18486.514082 -15487.742206   8379.071370    158.724338
PR18 -22280.538187  -9399.512018  -8015.007650    182.610735
PR19 -16355.161087   -263.639115 -19568.075699   -306.023564
PR20   2563.985021  13299.971434 -21611.492533   -124.724892
PR21  17567.456617  15794.937598  -9587.388318   -169.343864
PR22  22052.777150   8959.507435   9218.447764    -56.628864
PR24  -3424.304542 -13720.185170  21253.759940    -88.755138
PR26  19973.597203  -3083.926894  15573.521007   -131.661262
PE02 -19211.476024  18005.324860  13490.945917    191.067493
PE03 -25944.259889   9462.065507  10664.640695   -167.447997
PE04   7841.618003 -16721.694249 -23125.359284   -135.845603
PE05 -28379.314806  -3198.127427  -7782.724710   4820.205190
PE06  -3671.040178 -16768.354732 -24127.024684    -72.064430
PE07  13947.684766  14178.743579  21922.728856   -164.337694
PE08  -8661.097518  16494.635234  23002.148582   -402.753161
PE09 -13887.167830 -14079.012247 -22028.989876   -743.214548
PE10  -9011.596575 -25907.847404  11127.462671   -684.135701
PE11 -16106.329088 -24806.564358    916.188999   -410.939869
PE12  -1431.330912 -23206.868335  18310.112869  -1392.660530
PE13  15821.609126  24981.289349  -1471.082778    -29.307432
PE14 -26486.587018  -7710.154597  12393.746691    606.893059
PE15    869.197294  22812.928487 -18834.409322   -151.891476
PE16 -12526.430384 -12123.280348  23913.603978    -15.946346
PE18  15161.568801  13247.708341 -17094.773609   1013.918310
PE19  26878.580488  -8287.626686  -9219.050533   1254.476880
PE21  17565.716195   1613.528216 -23779.598450   -641.021089
PE23  19040.560143 -18301.741177 -13380.042602      7.871617
PE24  -5471.319032 -20922.243865  20199.080552  -1220.020800
PE25 -17375.408093  -2138.213402  23862.831552     13.406961
PE26  21319.979822  12033.611165  16654.883425   -150.072798
PE27   5519.900031  20866.021506 -20256.594943   -559.861963
PE29  28498.475839   3071.811259   7410.685602    -63.234606
PE30  -9557.435846  27558.044380  -5003.338951  -1150.552770
PE31   9639.137369 -27573.441563   4820.656703    -51.095228
PE33  14608.987217  -6865.599726  24822.960943     16.451839
PE34 -14349.317903   7284.396963 -24838.685499   -158.466680
PE36 -21222.509314 -12551.675709 -16357.210078   -340.999482
PC06  -1263.380616  30256.079723  29557.391105    682.719325
PC07 -17247.835026  29902.157185 -24239.147036    187.260413
PC08 -10800.140490  40632.210384    462.259387    156.134921
PC09   5719.074971  34434.214518  24626.921674   -899.471702
PC10  -9695.586126  30171.400040 -27676.362866   -400.709004
PC11  24463.428393    268.797007  13501.506497    343.546341
PC12      0.000000      0.000000      0.000000 999999.999999
PC13  -7105.200231  41190.468767   4423.478445     64.572499
PC14  23610.949342 -10893.991971  10062.146489   -674.603109
PC16  -1863.946633  29511.835999  30525.174422    -70.378524
PC19 -21898.765549  17288.016291  -1039.753730   -963.094255
PC20 -22273.949991   4376.077700 -16242.873824   -872.133909
PC21   8982.980803  12704.152352  23180.516558   -904.710409
PC22  -9008.474797  21183.245742  15789.722571    235.130122
PC23   1267.446209 -26669.817792  -8138.276811   -957.518625
PC24  16781.872940   7544.018706 -20999.534735    688.046417
PC25  12433.907082 -14004.481986 -20713.415859    620.852120
PC26  11586.096626  23610.353308  -9304.889859   -407.683849
PC27 -18511.750415 -16489.709099  12784.448121    425.349895
PC28  -2379.675987 -17283.949958  21785.975186    332.997895
PC29 -19448.769833   7500.853221 -18554.170461    390.863087
PC30 -26945.476311  -6570.624494  -2974.766855     83.206993
PC32  -9015.361340 -12683.682624 -23148.410442   -885.994365
PC33  21813.148776 -17351.318454   1173.058217   -948.285535
PC34  27002.110073   5393.178614   4597.588497    610.373922
PC35   2082.154147  17123.455631 -21957.069663    149.800551
PC36 -12607.278176  14009.135756  20586.550980    253.856317
PC37 -10796.668354 -24176.656478   8858.054990   -905.202629
PC38 -14952.600826  38199.389936  -9356.723700    203.638637
PC39  -7784.091093  24641.266511  33415.465349    -10.809549
PC40 -23694.576162  23695.147192 -25768.678145   -115.546751
PC41   9836.963892 -21351.915675 -14966.182483   -882.518496
PC42  21517.649009  -2587.474482  17603.972049   -571.056493
PC43  20101.891873  -7051.117392  18029.410139     98.749568
PC44  19034.245247  15877.538706 -12866.233546    715.066051
PC45  -1745.904603  26446.838965   8676.840401   -213.264462
PC48 -23665.259740  10680.725997 -10215.047348    837.997722
PJ02 -34766.731977  23599.828310   9169.858437     -0.645088
PJ03 -21650.878676  20356.714216 -25253.438475     -0.244678
PJ04 -26418.230444  32825.624134   9947.746482     21.187486
*  2025  1 19  0 10  0.00000000
PG01  19885.565929  12409.712778  12505.656892     59.377408
PG02  21981.870859  11912.338420   9994.819356   -264.513782
PG03  14418.021231   2725.509024  21967.084975    648.645202
PG04  25587.486620   1255.032543   7326.623426    514.071207
PG05  -8006.022377 -17324.528917 -18618.274584   -199.425189
PG06   -648.721496 -19447.609363  18091.688073   -128.113295
PG07  16981.874363  -2039.532956 -19893.381871    -13.419293
PG08  19561.419527   7736.524138 -16617.163588    463.662295
PG09  25721.291460  -6615.204495  -1555.759663    534.086982
PG10 -10144.254125  24232.305530  -2141.705430   -282.612215
PG11 -10501.727435 -22934.239023   8450.134257   -751.280768
PG12 -13625.408847  -6487.056017  21567.938077   -565.256029
PG13 -11015.806542 -13431.907929 -20395.035024    693.907821
PG14  12886.179909 -22320.978933  -5821.587474    582.570229
PG15 -20429.770806  -5617.297354 -16624.911181    253.263828
PG16   2457.489864  21297.283554 -15738.653466    -74.461743
PG17  17396.691718 -13150.912193  15709.404249    467.851476
PG18 -15149.318409   4442.536812 -21363.242752   -657.341636
PG19   6895.316551 -14909.599396  20636.474240    587.836532
PG20  -1900.683086 -25205.560957  -8277.593618    366.966885
PG21  21057.710396  16875.588902   3549.634353    101.320368
PG22   9320.521169 -24946.195988   2683.658467    -92.993213
PG23 -15527.651753  15061.086060 -15206.121769    406.578830
PG24 -21747.508737 -13866.528267   6683.694503   -462.447155
PG25 -16678.266865   7969.335024  18613.856889    496.527026
PG26  -2565.585209  25736.365980  -5239.774223    -53.898296
PG27   8383.026074  13727.929815 -21508.996263    -32.861789
PG28   -692.199641  18724.050538  18812.528539   -538.834401
PG29 -26246.222303   4141.589504  -1794.115316   -545.870118
PG30   8376.463093 -13844.852047 -20872.756952   -236.070756
PG31   6843.412970  22161.465984  12357.324680   -217.562252
PG32 -12061.778672  15270.590350  18217.496441   -539.012734
PR01  20510.261590 -14827.116431  -3141.318998    111.727100
PR02   9550.790820 -15232.240028 -18079.617121    -38.335046
PR03  -7993.377820  -7678.745536 -22919.233908    115.177956
PR04 -20230.308077   3747.009095 -15033.467464    273.135700
PR05 -21867.867607  13076.552290    885.010804    143.967092
PR07   8391.161648   7460.583350  22951.766699     99.141445
PR08  20379.213039  -4026.445484  14894.937765     -6.365024
PR09   -882.131355  25170.332304   4327.457026    232.903027
PR11  10653.621133   7211.217458 -22024.557940     -1.806979
PR12   8933.815468 -14235.950300 -19177.481107     49.771496
PR14  -6705.578061 -21190.149362  12504.147494     27.611955
PR15 -10924.954328  -5244.631266  22455.356198     72.049716
PR16  -8821.307889  14126.825603  19335.159495     32.563380
PR17 -18201.217698 -15254.036329   9373.690914    158.725482
PR18 -22578.886926  -9504.635757  -6992.071701    182.611407
PR19 -17044.418358   -658.006617 -18961.333904   -306.024285
PR20   1823.843037  12791.220700 -21988.975164   -124.725239
PR21  17241.133759  15532.011606 -10560.104431   -169.345002
PR22  22379.520969   9110.132186   8227.320211    -56.629465
PR24  -2671.811361 -13264.415113  21647.386195    -88.755820
PR26  19387.887825  -2787.883683  16351.685703   -131.661172
PE02 -19017.802306  17634.701136  14234.228342    191.068323
PE03 -26250.131802   9507.383142   9845.002854   -167.448784
PE04   8530.077664 -16789.506340 -22830.708448   -135.848478
PE05 -28131.572757  -3201.767885  -8633.795898   4820.206170
PE06  -2947.775812 -16830.458133 -24183.149645    -72.065765
PE07  13284.382893  14229.897479  22298.598898   -164.338275
PE08  -9345.173678  16564.048807  22682.587175   -402.755018
PE09 -13220.281287 -14127.451109 -22404.776310   -743.218829
PE10  -8850.658648 -25596.038246  11948.201331   -684.136461
PE11 -16123.047498 -24744.309306   1839.487106   -411.009216
PE12  -1138.092384 -22727.249219  18922.736193  -1392.665700
PE13  15831.411839  24903.082031  -2394.349760    -29.307599
PE14 -26024.568391  -7724.173604  12986.893413    606.906376
PE15    567.248803  22319.592298 -19426.947151   -151.892170
PE16 -12227.214673 -12775.238154  23728.193918    -15.946977
PE18  14585.503176  13507.400644 -17667.254827   1013.931120
PE19  27140.702671  -8332.461807  -8372.459849   1254.493530
PE21  17256.368144   2261.034212 -23952.600351   -641.021789
PE23  18849.828531 -17934.596225 -14127.176978      7.871491
PE24  -5223.021001 -21469.657161  19685.086725  -1220.027220
PE25 -17065.302196  -2788.766506  24019.156489     13.407065
PE26  21629.438701  12416.247284  15960.105401   -150.069535
PE27   5273.463916  21414.936649 -19742.343171   -559.864957
PE29  28262.409729   3079.199245   8261.982908    -63.235598
PE30  -9600.653412  27688.845194  -4116.252604  -1150.564810
PE31   9677.630996 -27700.917430   3931.322324    -51.095690
PE33  15039.518114  -6255.942978  24726.764237     16.451803
PE34 -14781.248965   6673.654483 -24756.949322   -158.467364
PE36 -21531.084601 -12925.585304 -15647.493543   -341.001068
PC06  -1343.623842  29882.008274  29928.852535    682.733166
PC07 -17391.095493  30181.445809 -23792.630591    187.269555
PC08 -10335.490386  40753.862846   -351.743676    156.118819
PC09   5766.269300  34049.923620  25145.767253   -899.460017
PC10  -9893.481965  30423.847346 -27341.802358   -400.715349
PC11  24871.814099    448.470480  12724.166040    343.551687
PC12      0.000000      0.000000      0.000000 999999.999999
PC13  -6680.234671  41334.676600   3631.025516     64.571058
PC14  23351.149380 -10645.118977  10902.117805   -674.616361
PC16  -1952.967190  29132.096126  30880.576021    -70.388041
PC19 -21870.934344  17239.671897  -1979.964473   -963.093924
PC20 -21849.456009   3998.744411 -16902.050410   -872.132325
PC21   8377.982049  13215.237590  23121.915556   -904.710136
PC22  -9421.357427  21513.798174  15087.023885    235.132955
PC23   1371.173104 -26390.563592  -8987.922981   -957.522901
PC24  16892.821445   8248.997974 -20641.278564    688.041960
PC25  12602.347871 -13308.593620 -21067.081968    620.855346
PC26  11600.759886  23918.164544  -8458.803386   -407.685506
PC27 -18073.931778 -16370.689030  13540.729962    425.351471
PC28  -1668.574020 -17041.956955  22041.373184    332.999211
PC29 -20038.788957   7287.493226 -18002.971712    390.864577
PC30 -27013.908158  -6639.967062  -2055.104809     83.209920
PC32  -8413.562451 -13199.910481 -23085.903608   -885.999067
PC33  21784.243901 -17298.775324   2112.947629   -948.285886
PC34  27124.235176   5479.618543   3689.785509    610.376347
PC35   1357.955609  16906.524269 -22179.850917    149.797399
PC36 -12760.478989  13313.194098  20951.346224    253.857809
PC37 -10802.541599 -24469.940999   8005.532290   -905.203801
PC38 -14522.969197  38172.144994 -10110.013697    203.639294
PC39  -7991.919164  24305.652418  33608.138558    -10.809568
PC40 -23911.744948  24036.594122 -25251.320289   -115.547503
PC41  10230.484867 -21665.649064 -14235.868823   -882.518476
PC42  21062.160893  -2179.518692  18202.220885   -571.059905
PC43  20673.990709  -6840.010438  17455.673224     98.749906
PC44  18589.901132  15779.552426 -13614.623151    715.069346
PC45  -1847.835387  26147.362465   9521.635176   -213.267095
PC48 -23409.189329  10419.194058 -11041.128751    837.996397
PJ02 -34597.348559  23742.380131   9731.138234     -0.645188
PJ03 -21871.314561  20091.793745 -25273.910314     -0.244711
PJ04 -26307.946610  32979.265663   9440.549170     21.187449
EOF
