#cP2008 10  5  0  0  0.00000000       3 ORBIT IGS05 HLM  IGS
## 1500      0.00000000   900.00000000 54744 0.0000000000000
+   32   G01G02G03G04G05G06G07G08G09G10G11G12G13G14G15G16G17
+        G18G19G20G21G22G23G24G25G26G27G28G29G30G31G32  0  0
+          0  0  0  0  0  0  0  0  0  0  0  0  0  0  0  0  0
+          0  0  0  0  0  0  0  0  0  0  0  0  0  0  0  0  0
+          0  0  0  0  0  0  0  0  0  0  0  0  0  0  0  0  0
++         4  3  2  2  3  2  2  2  2  2  2  3  2  2  3  3  3
++         3  3  3  3  3  3  2  2  3  2  3  2  2  3  2  0  0
++         0  0  0  0  0  0  0  0  0  0  0  0  0  0  0  0  0
++         0  0  0  0  0  0  0  0  0  0  0  0  0  0  0  0  0
++         0  0  0  0  0  0  0  0  0  0  0  0  0  0  0  0  0
%c G  cc GPS ccc cccc cccc cccc cccc ccccc ccccc ccccc ccccc
%c cc cc ccc ccc cccc cccc cccc cccc ccccc ccccc ccccc ccccc
%f  1.2500000  1.025000000  0.00000000000  0.000000000000000
%f  0.0000000  0.000000000  0.00000000000  0.000000000000000
%i    0    0    0    0      0      0      0      0         0
%i    0    0    0    0      0      0      0      0         0
/* FINAL ORBIT COMBINATION FROM WEIGHTED AVERAGE OF:        
/* cod emr esa gfz grg jpl mit ngs sio                      
/* REFERENCED TO IGS TIME (IGST) AND TO WEIGHTED MEAN POLE: 
/* PCV:IGS05_1499 OL/AL:FES2004  NONE     Y  ORB:CMB CLK:CMB
*  2008 10  5  0  0  0.00000000
PG01 -12657.447359  16740.372976  16448.768851      2.245618 15 16 14 137       
PG02  -7834.738711 -19495.825403  16328.196625    182.549520  7  9 10 129       
PG03    877.589810  17381.957376 -20263.121614    292.460366  9  7  9 166       
PG04   7142.905534 -13923.530809  21329.620467   -190.849644 10  7  8 141       
PG05 -14598.480979  -9233.618534  19915.773525   -215.713200 10 13 11 152       
PG06  -5054.978368  18196.399735 -18488.090314    162.021395 10  7  9 160       
PG07  22533.238077   3980.929284 -13599.197008     20.657205 10  9  7 140       
PG08  15177.664468  -6004.757804 -21135.176585   -172.694158  8  8  3 143       
PG09 -21672.059191 -15397.286306  -2091.583038     18.216391  8 11 10 146       
PG10  -1620.969530 -25665.824187  -6041.372063     -5.606028  7  8  8 104       
PG11  24228.251810  11286.014606  -1153.682567     18.598829 11 10  8 140       
PG12 -11617.212322 -15300.965413  18456.047242   -347.980349  9  9  9 136       
PG13  24786.992057  -4567.620691   8254.226575    273.210291  9  8 10 157       
PG14 -19135.170358  15514.013777   9889.193117   -211.498503 10  9  7 164       
PG15 -10354.600889 -11716.008491 -21443.834800   -188.560778 11  8 10 161       
PG16  -2619.070488  26314.833886    116.988612    103.327066  9  5 10 158       
PG17  19527.338272 -15678.468641   8621.736512     39.251851 10  9 10 141       
PG18 -15446.215205   6760.891583 -20232.464900   -126.842201 10 10  9 147       
PG19  11274.173954  11496.109432 -21085.670675     35.669110 10  9 10 154       
PG20  13588.300566  11395.140120  19671.788013    102.829954  9  8  7 151       
PG21 -20810.613810    145.119561 -16625.304716     48.028623 12 10  8 149       
PG22 -11816.772364  19776.002673 -13000.285921    210.555615 10  7  9 151       
PG23  20713.982953   2668.237680  16512.237868    375.598560 10 10  7 126       
PG24 -22711.874610 -12092.633889  -5814.330885    130.608018  9  8  7 162       
PG25  24197.981182   8268.914349  -6475.603645    -95.623583  8 11  8 136       
PG26  -4912.534144 -13888.494008 -22582.689151    334.922973 13 10 10 131       
PG27  21502.396621    974.657854 -14959.835017    222.680336  9  9  5 140       
PG28  11912.184694 -18448.462231 -14300.464547    -22.904687  9  9  9  90       
PG29 -23992.634607   2214.444855  11245.157819    -35.544854 12  8 11 167       
PG30 -15308.540849    775.759116  21329.995042    100.245957  8  9  6 130       
PG31  -3317.818247  15542.106389  21467.942434    -30.447360  7  9  8 168       
PG32   8838.987717  18843.874891  17044.227107    316.561626  7  6  6 135       
*  2008 10  5  0 15  0.00000000
PG01 -14280.592133  17329.911574  14337.203284      2.247688 15 15 14 143       
PG02  -6065.181999 -18591.841789  18000.822162    182.547101  6  8  9 116       
PG03  -1052.858315  18495.297043 -19194.945576    292.464375  9  7  9 159       
PG04   9230.027592 -12594.261651  21387.771013   -190.859739 10  7  8 123       
PG05 -14583.381029 -11507.701532  18736.295215   -215.785216 10 13 11 146       
PG06  -6941.555719  19067.308801 -16949.712145    162.018412  9  7  8 153       
PG07  23621.392496   4904.640521 -11251.828008     20.658306  9  9  8 126       
PG08  17039.552838  -4612.607358 -20077.743189   -172.694982  7  8  3 136       
PG09 -21285.650383 -15406.134087  -4928.687404     18.217904  7 10 10 116       
PG10  -1314.451614 -26166.007855  -3231.199657     -5.607650  7  7  8  61       
PG11  23827.593258  11580.257955  -3824.719610     18.598604 11 10  8 128       
PG12 -11386.186224 -17290.354955  16767.562973   -347.978768  9  8  9 130       
PG13  23839.470092  -3977.347860  10892.258923    273.211336 10  8 10 147       
PG14 -20075.926667  15780.864712   7196.422464   -211.494156 10  9  7 163       
PG15  -8183.898332 -12905.726283 -21695.560629   -188.566379 10  8  9 163       
PG16  -2863.347220  26126.661788   2988.637381    103.325313  9  5 10 150       
PG17  20384.828511 -15823.680170   5923.284638     39.252283 10  9 10 129       
PG18 -15354.211420   4348.787597 -20977.243984   -126.838958 11  9  9 142       
PG19   9037.675188  12506.170169 -21562.022959     35.669260  9  9 10 171       
PG20  13396.700792  13593.130229  18375.130774    102.829056  9  7  7 142       
PG21 -22212.447559  -1023.690504 -14751.959428     48.027869 11 10  8 150       
PG22 -11916.501920  18121.185925 -15126.567408    210.555802 10  7  8 164       
PG23  19004.260128   3688.100820  18249.814780    375.600010 10 10  6 128       
PG24 -22969.978223 -12640.289654  -3020.195250    130.611131  9  8  7 136       
PG25  24640.097258   8775.248293  -3677.153324    -95.588791  7 11  8 140       
PG26  -2668.420965 -14882.127411 -22272.297971    334.927545 13 10  9 140       
PG27  22885.324987   1954.642015 -12758.692223    222.682253  8  9  6 131       
PG28  11983.207437 -16610.200478 -16327.839649    -22.904925  9  9  9  26       
PG29 -22823.700672   1403.356871  13590.032842    -35.543749 12  8 10 157       
PG30 -15300.066839  -1743.130624  21287.550678    100.247511  8  9  6 172       
PG31  -5400.046197  14272.424749  21935.509300    -30.449526  7  9  7 164       
PG32   8473.955581  20570.306692  15086.928404    316.561643  7  6  7 120       
*  2008 10  5  0 30  0.00000000
PG01 -15645.499594  17894.536860  11981.188166      2.248004 15 15 14 149       
PG02  -4099.038711 -17693.743338  19364.343510    182.544876  6  8  9 115       
PG03  -2823.008425  19616.893754 -17800.766376    292.469241  9  7  8 157       
PG04  11363.770494 -11377.647955  21074.606906   -190.869459  9  7  7 124       
PG05 -14663.328238 -13624.814618  17227.935932   -215.857141 10 12 11 148       
PG06  -8623.368711  19921.737890 -15115.640295    162.015304  9  7  8 153       
PG07  24515.599623   5635.219829  -8712.108863     20.659868  9  8  8 124       
PG08  18857.813069  -3404.224667 -18681.511218   -172.696630  7  8  3 133       
PG09 -20624.014761 -15289.822568  -7682.662787     18.220245  7 10  9 105       
PG10  -1036.016709 -26357.918928   -364.400072     -5.607799  7  7  8  85       
PG11  23162.003919  11799.431954  -6431.447491     18.597435 10  9  8 121       
PG12 -11258.281009 -19082.514102  14793.146099   -347.977197  9  8  9 130       
PG13  22671.521210  -3196.230523  13341.757852    273.212316 10  8 10 147       
PG14 -20727.442993  15947.406579   4379.389888   -211.489925 10 10  7 158       
PG15  -6070.942407 -14209.596647 -21573.020863   -188.572061 10  8  8 167       
PG16  -3115.156613  25627.746055   5808.226607    103.323324  8  6  9 142       
PG17  20963.727844 -15856.108840   3121.926389     39.252371 10  9 10 133       
PG18 -15378.770852   1874.272573 -21352.701215   -126.835049 11  9  9 132       
PG19   6824.856977  13645.877269 -21665.436670     35.669424  9  8  9 170       
PG20  13308.632548  15632.015848  16759.873613    102.828199  8  7  6 143       
PG21 -23473.722536  -2004.521443 -12628.232044     48.026413 11  9  8 150       
PG22 -12091.422154  16245.964696 -16989.036376    210.555472 10  7  8 163       
PG23  17196.664076   4891.764326  19674.913163    375.601395 10  9  6 124       
PG24 -22983.243418 -13002.480644   -173.065998    130.613286  8  8  7 137       
PG25  24812.766285   9125.199502   -814.318837    -95.553846  7 10  8 133       
PG26   -529.241440 -15981.577681 -21593.782736    334.932461 12 10  8 140       
PG27  24075.384944   2739.192666 -10330.696430    222.685630  8 10  6 130       
PG28  12146.069973 -14560.424312 -18062.293061    -22.905098  9  8  9  52       
PG29 -21480.110277    409.094615  15702.088194    -35.542786 11  7  9 155       
PG30 -15414.222828  -4231.562349  20866.727513    100.249096  8  8  7 173       
PG31  -7574.497020  13102.437312  22032.412850    -30.451496  6  9  7 162       
PG32   8217.491401  22084.124698  12879.157433    316.561292  8  6  7 122       
EOF
